[{"OBJECT_NAME":"COSMOS 2251 DEB","OBJECT_ID":"1993-036BUQ","EPOCH":"2026-02-07T03:28:40.702656","MEAN_MOTION":14.58844351,"ECCENTRICITY":0.00677691,"INCLINATION":74.0403,"RA_OF_ASC_NODE":193.9274,"ARG_OF_PERICENTER":300.7751,"MEAN_ANOMALY":58.6753,"EPHEMERIS_TYPE":0,"CLASSIFICATION_TYPE":"U","NORAD_CAT_ID":39585,"ELEMENT_SET_NO":999,"REV_AT_EPOCH":63343,"BSTAR":0.00031897443,"MEAN_MOTION_DOT":1.509e-5,"MEAN_MOTION_DDOT":0},{"OBJECT_NAME":"COSMOS 2251 DEB","OBJECT_ID":"1993-036BUR","EPOCH":"2026-03-02T10:22:26.179680","MEAN_MOTION":14.2140898,"ECCENTRICITY":0.01020843,"INCLINATION":74.0074,"RA_OF_ASC_NODE":85.1557,"ARG_OF_PERICENTER":203.0522,"MEAN_ANOMALY":224.9463,"EPHEMERIS_TYPE":0,"CLASSIFICATION_TYPE":"U","NORAD_CAT_ID":39586,"ELEMENT_SET_NO":999,"REV_AT_EPOCH":62104,"BSTAR":0.00036244485,"MEAN_MOTION_DOT":8.09e-6,"MEAN_MOTION_DDOT":0},{"OBJECT_NAME":"COSMOS 2251 DEB","OBJECT_ID":"1993-036BUW","EPOCH":"2026-03-01T10:52:35.253984","MEAN_MOTION":14.42055642,"ECCENTRICITY":0.00298968,"INCLINATION":74.0181,"RA_OF_ASC_NODE":100.7281,"ARG_OF_PERICENTER":201.146,"MEAN_ANOMALY":222.943,"EPHEMERIS_TYPE":0,"CLASSIFICATION_TYPE":"U","NORAD_CAT_ID":39591,"ELEMENT_SET_NO":999,"REV_AT_EPOCH":62911,"BSTAR":0.0003777758,"MEAN_MOTION_DOT":1.221e-5,"MEAN_MOTION_DDOT":0},{"OBJECT_NAME":"COSMOS 2251 DEB","OBJECT_ID":"1993-036BUX","EPOCH":"2026-02-23T12:09:13.868064","MEAN_MOTION":14.41801815,"ECCENTRICITY":0.00164408,"INCLINATION":74.0313,"RA_OF_ASC_NODE":113.9714,"ARG_OF_PERICENTER":191.9106,"MEAN_ANOMALY":168.1664,"EPHEMERIS_TYPE":0,"CLASSIFICATION_TYPE":"U","NORAD_CAT_ID":40218,"ELEMENT_SET_NO":999,"REV_AT_EPOCH":59910,"BSTAR":0.00028392654,"MEAN_MOTION_DOT":9.03e-6,"MEAN_MOTION_DDOT":0},{"OBJECT_NAME":"COSMOS 2251 DEB","OBJECT_ID":"1993-036BVC","EPOCH":"2026-03-03T07:05:31.327008","MEAN_MOTION":15.15203936,"ECCENTRICITY":0.00114602,"INCLINATION":73.9326,"RA_OF_ASC_NODE":281.6509,"ARG_OF_PERICENTER":114.9311,"MEAN_ANOMALY":8.4647,"EPHEMERIS_TYPE":0,"CLASSIFICATION_TYPE":"U","NORAD_CAT_ID":40223,"ELEMENT_SET_NO":999,"REV_AT_EPOCH":60589,"BSTAR":0.0049179521,"MEAN_MOTION_DOT":0.00093701,"MEAN_MOTION_DDOT":0},{"OBJECT_NAME":"COSMOS 2251 DEB","OBJECT_ID":"1993-036BVH","EPOCH":"2026-02-18T05:16:17.105952","MEAN_MOTION":14.41164378,"ECCENTRICITY":0.0023166,"INCLINATION":74.0556,"RA_OF_ASC_NODE":135.7744,"ARG_OF_PERICENTER":187.3053,"MEAN_ANOMALY":204.016,"EPHEMERIS_TYPE":0,"CLASSIFICATION_TYPE":"U","NORAD_CAT_ID":40228,"ELEMENT_SET_NO":999,"REV_AT_EPOCH":59893,"BSTAR":0.00028362,"MEAN_MOTION_DOT":8.91e-6,"MEAN_MOTION_DDOT":0},{"OBJECT_NAME":"COSMOS 2251 DEB","OBJECT_ID":"1993-036BVK","EPOCH":"2026-02-21T19:30:35.054208","MEAN_MOTION":14.49812998,"ECCENTRICITY":0.00159873,"INCLINATION":74.0433,"RA_OF_ASC_NODE":93.591,"ARG_OF_PERICENTER":141.4165,"MEAN_ANOMALY":336.738,"EPHEMERIS_TYPE":0,"CLASSIFICATION_TYPE":"U","NORAD_CAT_ID":40230,"ELEMENT_SET_NO":999,"REV_AT_EPOCH":60001,"BSTAR":0.00049130745,"MEAN_MOTION_DOT":1.871e-5,"MEAN_MOTION_DDOT":0},{"OBJECT_NAME":"COSMOS 2251 DEB","OBJECT_ID":"1993-036BVN","EPOCH":"2026-03-03T17:21:05.359680","MEAN_MOTION":14.59412531,"ECCENTRICITY":0.00442671,"INCLINATION":73.9399,"RA_OF_ASC_NODE":307.9303,"ARG_OF_PERICENTER":2.4271,"MEAN_ANOMALY":357.7099,"EPHEMERIS_TYPE":0,"CLASSIFICATION_TYPE":"U","NORAD_CAT_ID":40233,"ELEMENT_SET_NO":999,"REV_AT_EPOCH":60318,"BSTAR":0.0011841882,"MEAN_MOTION_DOT":5.661e-5,"MEAN_MOTION_DDOT":0},{"OBJECT_NAME":"COSMOS 2251 DEB","OBJECT_ID":"1993-036BVR","EPOCH":"2026-02-17T15:10:28.734528","MEAN_MOTION":13.24799143,"ECCENTRICITY":0.05379234,"INCLINATION":73.5345,"RA_OF_ASC_NODE":38.2846,"ARG_OF_PERICENTER":272.5358,"MEAN_ANOMALY":81.4287,"EPHEMERIS_TYPE":0,"CLASSIFICATION_TYPE":"U","NORAD_CAT_ID":40236,"ELEMENT_SET_NO":999,"REV_AT_EPOCH":54510,"BSTAR":0.00076930137,"MEAN_MOTION_DOT":6.98e-6,"MEAN_MOTION_DDOT":0},{"OBJECT_NAME":"COSMOS 2251 DEB","OBJECT_ID":"1993-036BVT","EPOCH":"2026-02-13T03:10:30.754560","MEAN_MOTION":13.25387917,"ECCENTRICITY":0.0553052,"INCLINATION":73.9976,"RA_OF_ASC_NODE":327.7658,"ARG_OF_PERICENTER":287.868,"MEAN_ANOMALY":66.2853,"EPHEMERIS_TYPE":0,"CLASSIFICATION_TYPE":"U","NORAD_CAT_ID":40238,"ELEMENT_SET_NO":999,"REV_AT_EPOCH":54863,"BSTAR":-0.0010594337,"MEAN_MOTION_DOT":-1.079e-5,"MEAN_MOTION_DDOT":0},{"OBJECT_NAME":"COSMOS 2251 DEB","OBJECT_ID":"1993-036BVU","EPOCH":"2026-02-05T02:36:45.829728","MEAN_MOTION":14.62250063,"ECCENTRICITY":0.00869096,"INCLINATION":74.0297,"RA_OF_ASC_NODE":171.6906,"ARG_OF_PERICENTER":270.6387,"MEAN_ANOMALY":268.1502,"EPHEMERIS_TYPE":0,"CLASSIFICATION_TYPE":"U","NORAD_CAT_ID":40239,"ELEMENT_SET_NO":999,"REV_AT_EPOCH":60405,"BSTAR":0.00055490899,"MEAN_MOTION_DOT":2.921e-5,"MEAN_MOTION_DDOT":0},{"OBJECT_NAME":"COSMOS 2251 DEB","OBJECT_ID":"1993-036BVV","EPOCH":"2026-02-28T12:59:10.651200","MEAN_MOTION":14.68650337,"ECCENTRICITY":0.00168718,"INCLINATION":74.0421,"RA_OF_ASC_NODE":257.1398,"ARG_OF_PERICENTER":337.6218,"MEAN_ANOMALY":53.0139,"EPHEMERIS_TYPE":0,"CLASSIFICATION_TYPE":"U","NORAD_CAT_ID":40792,"ELEMENT_SET_NO":999,"REV_AT_EPOCH":64326,"BSTAR":0.00088443704,"MEAN_MOTION_DOT":5.127e-5,"MEAN_MOTION_DDOT":0},{"OBJECT_NAME":"COSMOS 2251 DEB","OBJECT_ID":"1993-036BVX","EPOCH":"2026-02-27T02:46:25.272192","MEAN_MOTION":15.00605669,"ECCENTRICITY":0.00077962,"INCLINATION":73.9694,"RA_OF_ASC_NODE":329.1878,"ARG_OF_PERICENTER":113.5437,"MEAN_ANOMALY":312.9579,"EPHEMERIS_TYPE":0,"CLASSIFICATION_TYPE":"U","NORAD_CAT_ID":40794,"ELEMENT_SET_NO":999,"REV_AT_EPOCH":63067,"BSTAR":0.0031465727,"MEAN_MOTION_DOT":0.0003998,"MEAN_MOTION_DDOT":0},{"OBJECT_NAME":"COSMOS 2251 DEB","OBJECT_ID":"1993-036BVZ","EPOCH":"2026-02-22T04:28:03.252864","MEAN_MOTION":14.82864088,"ECCENTRICITY":0.00525044,"INCLINATION":74.0142,"RA_OF_ASC_NODE":0.7305,"ARG_OF_PERICENTER":120.9149,"MEAN_ANOMALY":302.1682,"EPHEMERIS_TYPE":0,"CLASSIFICATION_TYPE":"U","NORAD_CAT_ID":40796,"ELEMENT_SET_NO":999,"REV_AT_EPOCH":77217,"BSTAR":0.00067527443,"MEAN_MOTION_DOT":5.572e-5,"MEAN_MOTION_DDOT":0},{"OBJECT_NAME":"COSMOS 2251 DEB","OBJECT_ID":"1993-036BWC","EPOCH":"2026-03-01T08:05:57.545376","MEAN_MOTION":14.97612795,"ECCENTRICITY":0.01162666,"INCLINATION":73.926,"RA_OF_ASC_NODE":298.2127,"ARG_OF_PERICENTER":162.8882,"MEAN_ANOMALY":197.6278,"EPHEMERIS_TYPE":0,"CLASSIFICATION_TYPE":"U","NORAD_CAT_ID":40799,"ELEMENT_SET_NO":999,"REV_AT_EPOCH":51153,"BSTAR":0.00042095283,"MEAN_MOTION_DOT":5.616e-5,"MEAN_MOTION_DDOT":0},{"OBJECT_NAME":"COSMOS 2251 DEB","OBJECT_ID":"1993-036BWF","EPOCH":"2026-02-28T12:20:45.545856","MEAN_MOTION":14.78520475,"ECCENTRICITY":0.00593111,"INCLINATION":74.0429,"RA_OF_ASC_NODE":0.3071,"ARG_OF_PERICENTER":78.683,"MEAN_ANOMALY":282.1002,"EPHEMERIS_TYPE":0,"CLASSIFICATION_TYPE":"U","NORAD_CAT_ID":40802,"ELEMENT_SET_NO":999,"REV_AT_EPOCH":65558,"BSTAR":0.00074156774,"MEAN_MOTION_DOT":5.549e-5,"MEAN_MOTION_DDOT":0}]
