COSMOS 2251 DEB         
1 39585U 93036BUQ 26038.14491554  .00001509  00000+0  31897-3 0  9998
2 39585  74.0403 193.9274 0067769 300.7751  58.6753 14.58844351633439
COSMOS 2251 DEB         
1 39586U 93036BUR 26061.43224745  .00000809  00000+0  36244-3 0  9996
2 39586  74.0074  85.1557 0102084 203.0522 224.9463 14.21408980621045
COSMOS 2251 DEB         
1 39591U 93036BUW 26060.45318581  .00001221  00000+0  37778-3 0  9997
2 39591  74.0181 100.7281 0029896 201.1460 222.9430 14.42055642629111
COSMOS 2251 DEB         
1 40218U 93036BUX 26054.50641051  .00000903  00000+0  28393-3 0  9994
2 40218  74.0313 113.9714 0016440 191.9106 168.1664 14.41801815599102
COSMOS 2251 DEB         
1 40223U 93036BVC 26062.29550147  .00093701  00000+0  49180-2 0  9994
2 40223  73.9326 281.6509 0011460 114.9311   8.4647 15.15203936605898
COSMOS 2251 DEB         
1 40228U 93036BVH 26049.21964243  .00000891  00000+0  28362-3 0  9990
2 40228  74.0556 135.7744 0023166 187.3053 204.0160 14.41164378598937
COSMOS 2251 DEB         
1 40230U 93036BVK 26052.81290572  .00001871  00000+0  49131-3 0  9996
2 40230  74.0433  93.5910 0015987 141.4165 336.7380 14.49812998600013
COSMOS 2251 DEB         
1 40233U 93036BVN 26062.72297869  .00005661  00000+0  11842-2 0  9994
2 40233  73.9399 307.9303 0044267   2.4271 357.7099 14.59412531603181
COSMOS 2251 DEB         
1 40236U 93036BVR 26048.63227702  .00000698  00000+0  76930-3 0  9995
2 40236  73.5345  38.2846 0537923 272.5358  81.4287 13.24799143545104
COSMOS 2251 DEB         
1 40238U 93036BVT 26044.13230040 -.00001079  00000+0 -10594-2 0  9996
2 40238  73.9976 327.7658 0553052 287.8680  66.2853 13.25387917548639
COSMOS 2251 DEB         
1 40239U 93036BVU 26036.10886377  .00002921  00000+0  55491-3 0  9996
2 40239  74.0297 171.6906 0086909 270.6387 268.1502 14.62250063604052
COSMOS 2251 DEB         
1 40792U 93036BVV 26059.54109550  .00005127  00000+0  88444-3 0  9999
2 40792  74.0421 257.1398 0016871 337.6218  53.0139 14.68650337643265
COSMOS 2251 DEB         
1 40794U 93036BVX 26058.11557028  .00039980  00000+0  31466-2 0  9995
2 40794  73.9694 329.1878 0007796 113.5437 312.9579 15.00605669630671
COSMOS 2251 DEB         
1 40796U 93036BVZ 26053.18614876  .00005572  00000+0  67527-3 0  9992
2 40796  74.0142   0.7305 0052504 120.9149 302.1682 14.82864088772178
COSMOS 2251 DEB         
1 40799U 93036BWC 26060.33747159  .00005616  00000+0  42095-3 0  9993
2 40799  73.9260 298.2127 0116266 162.8882 197.6278 14.97612795511532
COSMOS 2251 DEB         
1 40802U 93036BWF 26059.51441604  .00005549  00000+0  74157-3 0  9991
2 40802  74.0429   0.3071 0059311  78.6830 282.1002 14.78520475655581
